$$SOE
2461295.500000000, A.D. 2026-Sep-12 00:00:00.0000, -3.052467797678208E+08, -3.313567053520988E+08, -9.043572358678818E+06,
2461302.500000000, A.D. 2026-Sep-19 00:00:00.0000, -2.980364771537738E+08, -3.375715367338499E+08, -9.504201244386360E+06,
2461309.500000000, A.D. 2026-Sep-26 00:00:00.0000, -2.906678244482694E+08, -3.436070348191285E+08, -9.959780097900376E+06,
2461316.500000000, A.D. 2026-Oct-03 00:00:00.0000, -2.831444886849626E+08, -3.494597011967070E+08, -1.041005826637773E+07,
2461323.500000000, A.D. 2026-Oct-10 00:00:00.0000, -2.754701932018173E+08, -3.551260774606599E+08, -1.085478576231301E+07,
2461330.500000000, A.D. 2026-Oct-17 00:00:00.0000, -2.676487190241025E+08, -3.606027449049972E+08, -1.129371321683833E+07,
2461337.500000000, A.D. 2026-Oct-24 00:00:00.0000, -2.596839063296028E+08, -3.658863244085699E+08, -1.172659184361923E+07,
2461344.500000000, A.D. 2026-Oct-31 00:00:00.0000, -2.515796558962943E+08, -3.709734765801707E+08, -1.215317342788398E+07,
2461351.500000000, A.D. 2026-Nov-07 00:00:00.0000, -2.433399301922898E+08, -3.758609020930423E+08, -1.257321036562696E+07,
2461358.500000000, A.D. 2026-Nov-14 00:00:00.0000, -2.349687539059041E+08, -3.805453413246874E+08, -1.298645569884175E+07,
2461365.500000000, A.D. 2026-Nov-21 00:00:00.0000, -2.264702157258385E+08, -3.850235726231498E+08, -1.339266292482328E+07,
2461372.500000000, A.D. 2026-Nov-28 00:00:00.0000, -2.178484723671479E+08, -3.892924122114072E+08, -1.379158573383096E+07,
2461379.500000000, A.D. 2026-Dec-05 00:00:00.0000, -2.091077512216360E+08, -3.933487163915940E+08, -1.418297806081915E+07,
2461386.500000000, A.D. 2026-Dec-12 00:00:00.0000, -2.002523514669595E+08, -3.971893829437459E+08, -1.456659421211341E+07,
2461393.500000000, A.D. 2026-Dec-19 00:00:00.0000, -1.912866455205685E+08, -4.008113517172710E+08, -1.494218889333767E+07,
2461400.500000000, A.D. 2026-Dec-26 00:00:00.0000, -1.822150809790243E+08, -4.042116052874886E+08, -1.530951719644663E+07,
2461407.500000000, A.D. 2027-Jan-02 00:00:00.0000, -1.730421827645498E+08, -4.073871698728551E+08, -1.566833458686987E+07,
2461414.500000000, A.D. 2027-Jan-09 00:00:00.0000, -1.637725553594612E+08, -4.103351164983574E+08, -1.601839690010458E+07,
2461421.500000000, A.D. 2027-Jan-16 00:00:00.0000, -1.544108850912178E+08, -4.130525624029722E+08, -1.635946035063705E+07,
2461428.500000000, A.D. 2027-Jan-23 00:00:00.0000, -1.449619424207745E+08, -4.155366727380871E+08, -1.669128156104678E+07,
2461435.500000000, A.D. 2027-Jan-30 00:00:00.0000, -1.354305840453012E+08, -4.177846626120415E+08, -1.701361763284403E+07,
2461442.500000000, A.D. 2027-Feb-06 00:00:00.0000, -1.258217543890134E+08, -4.197937991482397E+08, -1.732622627070087E+07,
2461449.500000000, A.D. 2027-Feb-13 00:00:00.0000, -1.161404869404206E+08, -4.215614023446494E+08, -1.762886581873032E+07,
2461456.500000000, A.D. 2027-Feb-20 00:00:00.0000, -1.063919077968446E+08, -4.230848455327965E+08, -1.792129505728400E+07,
2461463.500000000, A.D. 2027-Feb-27 00:00:00.0000, -9.658124001601438E+07, -4.243615586577778E+08, -1.820327315171313E+07,
2461470.500000000, A.D. 2027-Mar-06 00:00:00.0000, -8.671380575242303E+07, -4.253890324662311E+08, -1.847455987359610E+07,
2461477.500000000, A.D. 2027-Mar-13 00:00:00.0000, -7.679502777477205E+07, -4.261648215616322E+08, -1.873491578078282E+07,
2461484.500000000, A.D. 2027-Mar-20 00:00:00.0000, -6.683043148880751E+07, -4.266865471683592E+08, -1.898410232131383E+07,
2461491.500000000, A.D. 2027-Mar-27 00:00:00.0000, -5.682564725620401E+07, -4.269519001593370E+08, -1.922188192501876E+07,
2461498.500000000, A.D. 2027-Apr-03 00:00:00.0000, -4.678641279682751E+07, -4.269586444016690E+08, -1.944801810590461E+07,
2461505.500000000, A.D. 2027-Apr-10 00:00:00.0000, -3.671857560166390E+07, -4.267046204063634E+08, -1.966227557997572E+07,
2461512.500000000, A.D. 2027-Apr-17 00:00:00.0000, -2.662809532272830E+07, -4.261877493085893E+08, -1.986442040280822E+07,
2461519.500000000, A.D. 2027-Apr-24 00:00:00.0000, -1.652104605008409E+07, -4.254060372542641E+08, -2.005422014031026E+07,
2461526.500000000, A.D. 2027-May-01 00:00:00.0000, -6.403618166194890E+06, -4.243575801782516E+08, -2.023144409875965E+07,
2461533.500000000, A.D. 2027-May-08 00:00:00.0000, 3.717880540665730E+06, -4.230405682374036E+08, -2.039586358185977E+07,
2461540.500000000, A.D. 2027-May-15 00:00:00.0000, 1.383702301951183E+07, -4.214532889549999E+08, -2.054725196024758E+07,
2461547.500000000, A.D. 2027-May-22 00:00:00.0000, 2.394725880719116E+07, -4.195941316766807E+08, -2.068538462251788E+07,
2461554.500000000, A.D. 2027-May-29 00:00:00.0000, 3.404191095976446E+07, -4.174615948154140E+08, -2.081003923641112E+07,
2461561.500000000, A.D. 2027-Jun-05 00:00:00.0000, 4.411417496823321E+07, -4.150542927651204E+08, -2.092099614630476E+07,
2461568.500000000, A.D. 2027-Jun-12 00:00:00.0000, 5.415711767032747E+07, -4.123709620623982E+08, -2.101803868844140E+07,
2461575.500000000, A.D. 2027-Jun-19 00:00:00.0000, 6.416367584779800E+07, -4.094104677414223E+08, -2.110095347072315E+07,
2461582.500000000, A.D. 2027-Jun-26 00:00:00.0000, 7.412665481057926E+07, -4.061718101523666E+08, -2.116953066475639E+07,
2461589.500000000, A.D. 2027-Jul-03 00:00:00.0000, 8.403872712356204E+07, -4.026541322426803E+08, -2.122356432219493E+07,
2461596.500000000, A.D. 2027-Jul-10 00:00:00.0000, 9.389243153880164E+07, -3.988567272984117E+08, -2.126285271861187E+07,
2461603.500000000, A.D. 2027-Jul-17 00:00:00.0000, 1.036801721987525E+08, -3.947790471893548E+08, -2.128719873199865E+07,
2461610.500000000, A.D. 2027-Jul-24 00:00:00.0000, 1.133942182993983E+08, -3.904207111860359E+08, -2.129641027604121E+07,
2461617.500000000, A.D. 2027-Jul-31 00:00:00.0000, 1.230267046593664E+08, -3.857815151188089E+08, -2.129030080739471E+07,
2461624.500000000, A.D. 2027-Aug-07 00:00:00.0000, 1.325696330303595E+08, -3.808614397325873E+08, -2.126868979524311E+07,
2461631.500000000, A.D. 2027-Aug-14 00:00:00.0000, 1.420148718849994E+08, -3.756606584932094E+08, -2.123140296369477E+07,
2461638.500000000, A.D. 2027-Aug-21 00:00:00.0000, 1.513541553397416E+08, -3.701795482084269E+08, -2.117827263964742E+07,
2461645.500000000, A.D. 2027-Aug-28 00:00:00.0000, 1.605790846868137E+08, -3.644187012574552E+08, -2.110913842354637E+07,
2461652.500000000, A.D. 2027-Sep-04 00:00:00.0000, 1.696811313991703E+08, -3.583789369229240E+08, -2.102384787121905E+07,
2461659.500000000, A.D. 2027-Sep-11 00:00:00.0000, 1.786516402598611E+08, -3.520613124791509E+08, -2.092225711372821E+07,
2461666.500000000, A.D. 2027-Sep-18 00:00:00.0000, 1.874818327979281E+08, -3.454671346751028E+08, -2.080423148133422E+07,
2461673.500000000, A.D. 2027-Sep-25 00:00:00.0000, 1.961628113110249E+08, -3.385979716736707E+08, -2.066964615951428E+07,
2461680.500000000, A.D. 2027-Oct-02 00:00:00.0000, 2.046855636031148E+08, -3.314556653992279E+08, -2.051838688212049E+07,
2461687.500000000, A.D. 2027-Oct-09 00:00:00.0000, 2.130409685146725E+08, -3.240423442721303E+08, -2.035035066438657E+07,
2461694.500000000, A.D. 2027-Oct-16 00:00:00.0000, 2.212198023657289E+08, -3.163604363530730E+08, -2.016544658616710E+07,
2461701.500000000, A.D. 2027-Oct-23 00:00:00.0000, 2.292127466319213E+08, -3.084126828658018E+08, -1.996359664959255E+07,
2461708.500000000, A.D. 2027-Oct-30 00:00:00.0000, 2.370103972908249E+08, -3.002021514470044E+08, -1.974473669516605E+07,
2461715.500000000, A.D. 2027-Nov-06 00:00:00.0000, 2.446032747372659E+08, -2.917322479497786E+08, -1.950881717654365E+07,
2461722.500000000, A.D. 2027-Nov-13 00:00:00.0000, 2.519818323418730E+08, -2.830067288229785E+08, -1.925580378032242E+07,
2461729.500000000, A.D. 2027-Nov-20 00:00:00.0000, 2.591364666129299E+08, -2.740297161881150E+08, -1.898567833391920E+07,
2461736.500000000, A.D. 2027-Nov-27 00:00:00.0000, 2.660575306367478E+08, -2.648057125776862E+08, -1.869843990537779E+07,
2461743.500000000, A.D. 2027-Dec-04 00:00:00.0000, 2.727353488271778E+08, -2.553396143413200E+08, -1.839410583194123E+07,
2461750.500000000, A.D. 2027-Dec-11 00:00:00.0000, 2.791602324833931E+08, -2.456367245921036E+08, -1.807271270223415E+07,
2461757.500000000, A.D. 2027-Dec-18 00:00:00.0000, 2.853224964786760E+08, -2.357027659285391E+08, -1.773431734119403E+07,
2461764.500000000, A.D. 2027-Dec-25 00:00:00.0000, 2.912124772793700E+08, -2.255438928220150E+08, -1.737899780782153E+07,
2461771.500000000, A.D. 2028-Jan-01 00:00:00.0000, 2.968205523792602E+08, -2.151667035375944E+08, -1.700685440386572E+07,
$$EOE